NORAD_CAT_ID,OBJECT_NAME,OBJECT_TYPE,EPOCH,MEAN_MOTION,ECCENTRICITY,INCLINATION,RA_OF_ASC_NODE,ARG_OF_PERICENTER,MEAN_ANOMALY,BSTAR,MEAN_MOTION_DOT,MEAN_MOTION_DDOT,TLE_LINE0,TLE_LINE1,TLE_LINE2,SEMIMAJOR_AXIS,PERIOD,APOGEE,PERIGEE,DECAYED
55312.0,STARLINK-5296,PAYLOAD,2024-03-08 09:34:26,14.98334473,0.000277,70.0008,48.1224,269.5108,90.5734,2.4913e-05,2.04e-06,0.0,0 STARLINK-5296,1 55312U 23010AV  24068.39892300  .00000204  00000-0  24913-4 0  9995,2 55312  70.0008  48.1224 0002770 269.5108  90.5734 14.98334473 65107,6950.179,96.107,573.969,570.119,0.0
55312.0,STARLINK-5296,PAYLOAD,2024-03-08 15:58:59,14.98333162,0.0002809,70.0005,47.4488,268.0041,92.0797,-5.5349e-05,-7.53e-06,0.0,0 STARLINK-5296,1 55312U 23010AV  24068.66596527 -.00000753  00000-0 -55349-4 0  9995,2 55312  70.0005  47.4488 0002809 268.0041  92.0797 14.98333162 65145,6950.183,96.107,574.0,570.096,0.0
55312.0,STARLINK-5296,PAYLOAD,2024-03-09 04:48:03,14.9833093,0.0002798,70.0002,46.1011,268.0877,91.9961,4.3599e-05,4.27e-06,0.0,0 STARLINK-5296,1 55312U 23010AV  24069.20004368  .00000427  00000-0  43599-4 0  9993,2 55312  70.0002  46.1011 0002798 268.0877  91.9961 14.98330930 64032,6950.19,96.107,574.0,570.11,0.0
55312.0,STARLINK-5296,PAYLOAD,2024-03-09 08:00:19,14.98330973,0.0002798,70.0006,45.7652,268.7651,91.3188,4.8868e-05,4.9e-06,0.0,0 STARLINK-5296,1 55312U 23010AV  24069.33356384  .00000490  00000-0  48868-4 0  9999,2 55312  70.0006  45.7652 0002798 268.7651  91.3188 14.98330973 65245,6950.19,96.107,574.0,570.11,0.0
55312.0,STARLINK-5296,PAYLOAD,2024-03-09 16:01:00,14.98327145,0.0002742,70.0007,44.9236,271.7409,88.3436,0.00012784,1.433e-05,0.0,0 STARLINK-5296,1 55312U 23010AV  24069.66736432  .00001433  00000-0  12784-3 0  9996,2 55312  70.0007  44.9236 0002742 271.7409  88.3436 14.98327145 65293,6950.202,96.107,573.972,570.161,0.0
55312.0,STARLINK-5296,PAYLOAD,2024-03-10 04:50:05,14.98315647,0.0002724,70.0008,43.5768,268.9572,91.1275,-0.00020441,-2.53e-05,0.0,0 STARLINK-5296,1 55312U 23010AV  24070.20145278 -.00002530  00000-0 -20441-3 0  9990,2 55312  70.0008  43.5768 0002724 268.9572  91.1275 14.98315647 64182,6950.237,96.108,573.996,570.209,0.0
55312.0,STARLINK-5296,PAYLOAD,2024-03-10 08:02:20,14.98325164,0.000288,70.0007,43.2395,270.5297,89.5532,-0.00010012,-1.287e-05,0.0,0 STARLINK-5296,1 55312U 23010AV  24070.33496419 -.00001287  00000-0 -10012-3 0  9991,2 55312  70.0007  43.2395 0002880 270.5297  89.5532 14.98325164 64205,6950.208,96.107,574.075,570.071,0.0
55312.0,STARLINK-5296,PAYLOAD,2024-03-10 22:27:33,14.98323855,0.0002902,70.0007,41.7257,269.0107,91.072,-6.5267e-05,-8.71e-06,0.0,0 STARLINK-5296,1 55312U 23010AV  24070.93580509 -.00000871  00000-0 -65267-4 0  9992,2 55312  70.0007  41.7257 0002902 269.0107  91.0720 14.98323855 65486,6950.212,96.107,574.094,570.06,0.0
55312.0,STARLINK-5296,PAYLOAD,2024-03-11 08:04:21,14.98328158,0.0002901,70.0009,40.7157,269.1471,90.9356,-5.5092e-05,-7.5e-06,0.0,0 STARLINK-5296,1 55312U 23010AV  24071.33636290 -.00000750  00000-0 -55092-4 0  9997,2 55312  70.0009  40.7157 0002901 269.1471  90.9356 14.98328158 64359,6950.199,96.107,574.08,570.047,0.0
55312.0,STARLINK-5296,PAYLOAD,2024-03-11 20:53:25,14.98393353,0.0003205,70.001,39.3692,273.8992,86.18,-0.0011427,-0.00013723,0.0,0 STARLINK-5296,1 55312U 23010AV  24071.87043201 -.00013723  00000-0 -11427-2 0  9996,2 55312  70.0010  39.3692 0003205 273.8992  86.1800 14.98393353 64436,6949.997,96.103,574.089,569.635,0.0
55312.0,STARLINK-5296,PAYLOAD,2024-03-12 04:54:06,14.98320725,0.0002845,70.001,38.5276,268.3247,91.7587,9.0923e-05,9.92e-06,0.0,0 STARLINK-5296,1 55312U 23010AV  24072.20424216  .00000992  00000-0  90923-4 0  9995,2 55312  70.0010  38.5276 0002845 268.3247  91.7587 14.98320725 64488,6950.222,96.108,574.064,570.109,0.0
55312.0,STARLINK-5296,PAYLOAD,2024-03-12 14:30:54,14.98324076,0.0002801,70.0012,37.5176,268.6725,91.4113,9.6053e-05,1.053e-05,0.0,0 STARLINK-5296,1 55312U 23010AV  24072.60480201  .00001053  00000-0  96053-4 0  9994,2 55312  70.0012  37.5176 0002801 268.6725  91.4113 14.98324076 65738,6950.211,96.107,574.023,570.129,0.0
55312.0,STARLINK-5296,PAYLOAD,2024-03-13 04:56:07,14.98330071,0.0002796,70.0011,36.003,267.3292,92.7547,0.00010943,1.213e-05,0.0,0 STARLINK-5296,1 55312U 23010AV  24073.20563930  .00001213  00000-0  10943-3 0  9993,2 55312  70.0011  36.0030 0002796 267.3292  92.7547 14.98330071 64633,6950.193,96.107,574.001,570.114,0.0
55312.0,STARLINK-5296,PAYLOAD,2024-03-13 14:32:55,14.98330678,0.0002769,70.0012,34.9931,266.4567,93.6275,8.1853e-05,8.84e-06,0.0,0 STARLINK-5296,1 55312U 23010AV  24073.60619963  .00000884  00000-0  81853-4 0  9997,2 55312  70.0012  34.9931 0002769 266.4567  93.6275 14.98330678 65885,6950.191,96.107,573.98,570.131,0.0
55312.0,STARLINK-5296,PAYLOAD,2024-03-13 22:33:36,14.98329933,0.000266,70.0014,34.1515,265.4392,94.6463,5.0992e-05,5.16e-06,0.0,0 STARLINK-5296,1 55312U 23010AV  24073.94000106  .00000516  00000-0  50992-4 0  9999,2 55312  70.0014  34.1515 0002660 265.4392  94.6463 14.98329933 65930,6950.193,96.107,573.907,570.209,0.0
55312.0,STARLINK-5296,PAYLOAD,2024-03-14 04:58:08,14.98331095,0.0002652,70.0013,33.4783,265.4014,94.6842,6.2736e-05,6.56e-06,0.0,0 STARLINK-5296,1 55312U 23010AV  24074.20704001  .00000656  00000-0  62736-4 0  9998,2 55312  70.0013  33.4783 0002652 265.4014  94.6842 14.98331095 64785,6950.19,96.107,573.898,570.211,0.0
55312.0,STARLINK-5296,PAYLOAD,2024-03-14 06:34:16,14.9833186,0.0002644,70.0013,33.31,265.3332,94.7525,6.9978e-05,7.42e-06,0.0,0 STARLINK-5296,1 55312U 23010AV  24074.27379928  .00000742  00000-0  69978-4 0  9992,2 55312  70.0013  33.3100 0002644 265.3332  94.7525 14.98331860 65982,6950.187,96.107,573.89,570.215,0.0
55312.0,STARLINK-5296,PAYLOAD,2024-03-14 22:35:37,14.98328992,0.0002604,70.0014,31.6278,263.4378,96.6484,-4.9043e-05,-6.78e-06,0.0,0 STARLINK-5296,1 55312U 23010AV  24074.94140411 -.00000678  00000-0 -49043-4 0  9990,2 55312  70.0014  31.6278 0002604 263.4378  96.6484 14.98328992 66084,6950.196,96.107,573.871,570.251,0.0
55312.0,STARLINK-5296,PAYLOAD,2024-03-15 05:00:09,14.98326876,0.0002611,70.0014,30.9545,262.5977,97.4885,-5.5454e-05,-7.54e-06,0.0,0 STARLINK-5296,1 55312U 23010AV  24075.20844580 -.00000754  00000-0 -55454-4 0  9996,2 55312  70.0014  30.9545 0002611 262.5977  97.4885 14.98326876 64931,6950.203,96.107,573.882,570.253,0.0
55312.0,STARLINK-5296,PAYLOAD,2024-03-15 22:37:37,14.98331539,0.0002683,70.0013,29.1028,263.5103,96.575,3.8621e-05,3.68e-06,0.0,0 STARLINK-5296,1 55312U 23010AV  24075.94280026  .00000368  00000-0  38621-4 0  9992,2 55312  70.0013  29.1028 0002683 263.5103  96.5750 14.98331539 66235,6950.188,96.107,573.918,570.188,0.0
55312.0,STARLINK-5296,PAYLOAD,2024-03-16 05:02:10,14.98332721,0.0002683,70.0013,28.4294,259.1243,100.9614,2.2382e-05,1.74e-06,0.0,0 STARLINK-5296,1 55312U 23010AV  24076.20983942  .00000174  00000-0  22382-4 0  9991,2 55312  70.0013  28.4294 0002683 259.1243 100.9614 14.98332721 65083,6950.184,96.107,573.914,570.185,0.0
55312.0,STARLINK-5296,PAYLOAD,2024-03-16 06:38:18,14.98332868,0.0002685,70.0013,28.2611,259.4377,100.6479,2.3674e-05,1.9e-06,0.0,0 STARLINK-5296,1 55312U 23010AV  24076.27659922  .00000190  00000-0  23674-4 0  9999,2 55312  70.0013  28.2611 0002685 259.4377 100.6479 14.98332868 66288,6950.184,96.107,573.915,570.183,0.0
55312.0,STARLINK-5296,PAYLOAD,2024-03-16 22:39:38,14.98329487,0.0002748,70.0014,26.5796,256.9288,103.1565,6.8624e-05,7.26e-06,0.0,0 STARLINK-5296,1 55312U 23010AV  24076.94419991  .00000726  00000-0  68624-4 0  9992,2 55312  70.0014  26.5796 0002748 256.9288 103.1565 14.98329487 66385,6950.194,96.107,573.969,570.15,0.0
55312.0,STARLINK-5296,PAYLOAD,2024-03-17 05:04:11,14.9832943,0.0002748,70.0014,25.9063,256.3215,103.7638,6.2058e-05,6.48e-06,0.0,0 STARLINK-5296,1 55312U 23010AV  24077.21124016  .00000648  00000-0  62058-4 0  9992,2 55312  70.0014  25.9063 0002748 256.3215 103.7638 14.98329430 65237,6950.195,96.107,573.97,570.15,0.0
55312.0,STARLINK-5296,PAYLOAD,2024-03-17 06:40:19,14.98329286,0.0002755,70.0013,25.7375,258.8903,101.1946,6.0067e-05,6.24e-06,0.0,0 STARLINK-5296,1 55312U 23010AV  24077.27800045  .00000624  00000-0  60067-4 0  9993,2 55312  70.0013  25.7375 0002755 258.8903 101.1946 14.98329286 66435,6950.195,96.107,573.975,570.145,0.0
55312.0,STARLINK-5296,PAYLOAD,2024-03-17 22:41:39,14.98333247,0.0002715,70.0013,24.0535,263.7367,96.3483,1.7296e-05,1.13e-06,0.0,0 STARLINK-5296,1 55312U 23010AV  24077.94559866  .00000113  00000-0  17296-4 0  9998,2 55312  70.0013  24.0535 0002715 263.7367  96.3483 14.98333247 66534,6950.183,96.107,573.935,570.161,0.0
55312.0,STARLINK-5296,PAYLOAD,2024-03-18 05:06:11,14.98334346,0.0002697,70.0014,23.3801,261.6399,98.4454,2.9315e-05,2.57e-06,0.0,0 STARLINK-5296,1 55312U 23010AV  24078.21263686  .00000257  00000-0  29315-4 0  9995,2 55312  70.0014  23.3801 0002697 261.6399  98.4454 14.98334346 65388,6950.179,96.107,573.919,570.17,0.0
55312.0,STARLINK-5296,PAYLOAD,2024-03-18 06:42:19,14.98334786,0.0002696,70.0014,23.2119,261.5027,98.5826,3.345e-05,3.06e-06,0.0,0 STARLINK-5296,1 55312U 23010AV  24078.27939628  .00000306  00000-0  33450-4 0  9997,2 55312  70.0014  23.2119 0002696 261.5027  98.5826 14.98334786 66580,6950.178,96.107,573.917,570.169,0.0
55312.0,STARLINK-5296,PAYLOAD,2024-03-18 22:43:41,14.98291595,0.0002501,70.0016,21.5278,256.0361,104.052,0.00064687,7.626e-05,0.0,0 STARLINK-5296,1 55312U 23010AV  24078.94700454  .00007626  00000-0  64687-3 0  9991,2 55312  70.0016  21.5278 0002501 256.0361 104.0520 14.98291595 66689,6950.312,96.109,573.915,570.438,0.0
55312.0,STARLINK-5296,PAYLOAD,2024-03-19 05:08:14,14.98241271,0.0002198,70.0017,20.8553,269.7203,90.3704,0.0016472,0.0001957,0.0,0 STARLINK-5296,1 55312U 23010AV  24079.21406096  .00019570  00000-0  16472-2 0  9996,2 55312  70.0017  20.8553 0002198 269.7203  90.3704 14.98241271 66728,6950.467,96.113,573.86,570.805,0.0
